{
    "links": {
        "self": "http://www.neowsapp.com/rest/v1/neo/54054688?api_key=iIulBulltgU6a56xZRHN4H3l9WmuAYTsLGpBGhQ2"
    },
    "id": "54054688",
    "neo_reference_id": "54054688",
    "name": "(2020 SW5)",
    "designation": "2020 SW5",
    "nasa_jpl_url": "http://ssd.jpl.nasa.gov/sbdb.cgi?sstr=54054688",
    "absolute_magnitude_h": 25.803,
    "estimated_diameter": {
        "kilometers": {
            "estimated_diameter_min": 0.0183634796,
            "estimated_diameter_max": 0.0410619887
        },
        "meters": {
            "estimated_diameter_min": 18.3634795893,
            "estimated_diameter_max": 41.0619886651
        },
        "miles": {
            "estimated_diameter_min": 0.0114105337,
            "estimated_diameter_max": 0.025514729
        },
        "feet": {
            "estimated_diameter_min": 60.2476383758,
            "estimated_diameter_max": 134.717814892
        }
    },
    "is_potentially_hazardous_asteroid": false,
    "close_approach_data": [
        {
            "close_approach_date": "1928-04-10",
            "close_approach_date_full": "1928-Apr-10 03:34",
            "epoch_date_close_approach": -1316809560000,
            "relative_velocity": {
                "kilometers_per_second": "24.9850147952",
                "kilometers_per_hour": "89946.0532628021",
                "miles_per_hour": "55888.9795954339"
            },
            "miss_distance": {
                "astronomical": "0.3113223889",
                "lunar": "121.1044092821",
                "kilometers": "46573166.262751643",
                "miles": "28939223.5860449534"
            },
            "orbiting_body": "Earth"
        },
        {
            "close_approach_date": "2020-09-21",
            "close_approach_date_full": "2020-Sep-21 07:42",
            "epoch_date_close_approach": 1600674120000,
            "relative_velocity": {
                "kilometers_per_second": "15.8211072124",
                "kilometers_per_hour": "56955.9859646616",
                "miles_per_hour": "35390.234723431"
            },
            "miss_distance": {
                "astronomical": "0.0209404511",
                "lunar": "8.1458354779",
                "kilometers": "3132646.881399157",
                "miles": "1946536.5100040866"
            },
            "orbiting_body": "Earth"
        },
        {
            "close_approach_date": "2020-11-07",
            "close_approach_date_full": "2020-Nov-07 13:25",
            "epoch_date_close_approach": 1604755500000,
            "relative_velocity": {
                "kilometers_per_second": "14.3384316103",
                "kilometers_per_hour": "51618.3537971128",
                "miles_per_hour": "32073.6376691004"
            },
            "miss_distance": {
                "astronomical": "0.0328529638",
                "lunar": "12.7798029182",
                "kilometers": "4914733.407667106",
                "miles": "3053873.7295178228"
            },
            "orbiting_body": "Mars"
        }
    ],
    "orbital_data": {
        "orbit_id": "3",
        "orbit_determination_date": "2020-11-03 14:45:25",
        "first_observation_date": "2020-09-25",
        "last_observation_date": "2020-10-24",
        "data_arc_in_days": 29,
        "observations_used": 18,
        "orbit_uncertainty": "8",
        "minimum_orbit_intersection": ".00190412",
        "jupiter_tisserand_invariant": "3.742",
        "epoch_osculation": "2459136.5",
        "eccentricity": ".5934316365129689",
        "semi_major_axis": "1.874055530136957",
        "inclination": "1.708849827467997",
        "ascending_node_longitude": "42.84259324990109",
        "orbital_period": "937.0701630158485",
        "perihelion_distance": ".7619316899716031",
        "perihelion_argument": "246.2040788376785",
        "aphelion_distance": "2.986179370302311",
        "perihelion_time": "2459068.584773468536",
        "mean_anomaly": "26.0914097111355",
        "mean_motion": ".384176141988539",
        "equinox": "J2000",
        "orbit_class": {
            "orbit_class_type": "APO",
            "orbit_class_description": "Near-Earth asteroid orbits which cross the Earth’s orbit similar to that of 1862 Apollo",
            "orbit_class_range": "a (semi-major axis) > 1.0 AU; q (perihelion) < 1.017 AU"
        }
    },
    "is_sentry_object": false
}